{
  "norad_id": 57200,
  "name": "2023-091AL",
  "history": [
    {
      "epoch": "2026-03-28T20:25:22.689120Z",
      "apogee_km": 445.62061516836,
      "perigee_km": 437.95883668738315,
      "latitude_deg": 5.659224822539678e-05,
      "longitude_deg": 27.05747712962666,
      "height_km": 441.0900054125384,
      "semi_major_axis_km": 6819.926725927871,
      "eccentricity": 0.00056172,
      "inclination_deg": 97.5125,
      "raan_deg": 159.6675,
      "arg_perigee_deg": 354.9235,
      "mean_anomaly_deg": 5.1954,
      "mean_motion_rev_day": 15.41463335
    },
    {
      "epoch": "2026-03-29T04:12:45.936288Z",
      "apogee_km": 445.54067248379215,
      "perigee_km": 437.86971398484275,
      "latitude_deg": -7.528969303560604e-06,
      "longitude_deg": -89.77529297405277,
      "height_km": 441.0103333312544,
      "semi_major_axis_km": 6819.842193234317,
      "eccentricity": 0.0005624,
      "inclination_deg": 97.5124,
      "raan_deg": 160.0015,
      "arg_perigee_deg": 353.5552,
      "mean_anomaly_deg": 6.5621,
      "mean_motion_rev_day": 15.41491995
    },
    {
      "epoch": "2026-03-30T03:34:53.010624Z",
      "apogee_km": 445.3120493249653,
      "perigee_km": 437.6849689715327,
      "latitude_deg": -5.502624241174587e-05,
      "longitude_deg": -80.26257815824721,
      "height_km": 440.8717385168127,
      "semi_major_axis_km": 6819.635509148248,
      "eccentricity": 0.0005592,
      "inclination_deg": 97.5124,
      "raan_deg": 161.0034,
      "arg_perigee_deg": 349.0302,
      "mean_anomaly_deg": 11.0821,
      "mean_motion_rev_day": 15.41562073
    },
    {
      "epoch": "2026-03-30T05:08:21.352992Z",
      "apogee_km": 445.30221564402655,
      "perigee_km": 437.6707841626949,
      "latitude_deg": -3.5729525641001215e-05,
      "longitude_deg": -103.6279533795651,
      "height_km": 440.8612897292478,
      "semi_major_axis_km": 6819.62349990336,
      "eccentricity": 0.00055952,
      "inclination_deg": 97.5124,
      "raan_deg": 161.0701,
      "arg_perigee_deg": 348.7454,
      "mean_anomaly_deg": 11.3666,
      "mean_motion_rev_day": 15.41566145
    },
    {
      "epoch": "2026-03-30T14:29:11.012352Z",
      "apogee_km": 445.1960903947893,
      "perigee_km": 437.609897714603,
      "latitude_deg": -4.8088550659032205e-05,
      "longitude_deg": 116.18196180110334,
      "height_km": 440.82266532256057,
      "semi_major_axis_km": 6819.539994054696,
      "eccentricity": 0.00055621,
      "inclination_deg": 97.5124,
      "raan_deg": 161.4708,
      "arg_perigee_deg": 347.1229,
      "mean_anomaly_deg": 12.9874,
      "mean_motion_rev_day": 15.4159446
    },
    {
      "epoch": "2026-03-30T20:43:03.766656Z",
      "apogee_km": 445.1246523385853,
      "perigee_km": 437.57316281369094,
      "latitude_deg": -4.913337154311189e-05,
      "longitude_deg": 22.723441392914964,
      "height_km": 440.80072041569815,
      "semi_major_axis_km": 6819.485907576138,
      "eccentricity": 0.00055367,
      "inclination_deg": 97.5124,
      "raan_deg": 161.738,
      "arg_perigee_deg": 346.1334,
      "mean_anomaly_deg": 13.9759,
      "mean_motion_rev_day": 15.416128
    },
    {
      "epoch": "2026-03-31T20:05:04.318656Z",
      "apogee_km": 444.8766798869483,
      "perigee_km": 437.45046156542867,
      "latitude_deg": -1.6226218851267122e-05,
      "longitude_deg": 32.263397212260195,
      "height_km": 440.7535272089308,
      "semi_major_axis_km": 6819.300570726188,
      "eccentricity": 0.0005445,
      "inclination_deg": 97.5121,
      "raan_deg": 162.7399,
      "arg_perigee_deg": 341.8398,
      "mean_anomaly_deg": 18.2653,
      "mean_motion_rev_day": 15.41675648
    }
  ]
}